NETSAT-4                
1 46504U 20068U   24294.51986193  .00040549  00000+0  18875-2 0  9990
2 46504  97.8205 255.5002 0006511 300.9707  59.0887 15.19791184223178
NETSAT-3                
1 46505U 20068V   24294.42155187  .00045816  00000+0  21681-2 0  9993
2 46505  97.8181 254.7487 0006338 316.5536  43.5197 15.19189187223143
NETSAT-1                
1 46506U 20068W   24294.50546954  .00027318  00000+0  13957-2 0  9993
2 46506  97.8212 253.9482 0006159 330.4579  29.6304 15.16637281223097
NETSAT-2                
1 46507U 20068X   24294.40828855  .00042265  00000+0  19701-2 0  9997
2 46507  97.8191 254.9819 0005310 342.9994  17.1061 15.19738247223107
TIANQI-6                
1 46810U 20076D   24294.59681192  .00014916  00000+0  11847-2 0  9999
2 46810  34.9992 140.7101 0013436 268.1784  91.7384 14.99633701217504
KSM1-C                  
1 46906U 20081B   24294.55054254  .00023972  00000+0  13527-2 0  9999
2 46906  36.8919 154.1660 0004694 259.8541 100.1674 15.12387133217118
KSM1-D                  
1 46907U 20081C   24294.56968844  .00022846  00000+0  13105-2 0  9991
2 46907  36.8957 155.6727 0007021 261.3962  98.5987 15.11799373217123
KSM1-A                  
1 46912U 20081H   24294.03598037  .00023493  00000+0  13338-2 0  9999
2 46912  36.8950 156.8830 0007087 306.2260  53.7829 15.12161587217075
R2                      
1 46913U 20081J   24293.94611799  .00021666  00000+0  12301-2 0  9999
2 46913  36.8988 155.7085 0011188 265.0958  94.8509 15.12149206219886
KSM1-B                  
1 46914U 20081K   24294.05575666  .00023084  00000+0  13265-2 0  9991
2 46914  36.9000 158.3770 0009971 270.3026  89.6576 15.11712162220148
GONETS-M 20             
1 47227U 20091A   24294.55010315  .00000041  00000+0  22060-3 0  9992
2 47227  82.5024 318.2645 0021852  62.8306 297.4998 12.42883572175965
GONETS-M 21             
1 47228U 20091B   24294.52194470  .00000028  00000+0  12786-3 0  9994
2 47228  82.4946 317.3625 0016070  76.4773 283.8096 12.42896634175951
GONETS-M 22             
1 47229U 20091C   24294.49650849  .00000035  00000+0  17736-3 0  9996
2 47229  82.5004 317.9953 0022755  56.8532 303.4727 12.42891507175909
UVSQ-SAT                
1 47438U 21006AB  24293.57879378  .01410847  11599-2  24481-2 0  9992
2 47438  97.2890 358.3600 0003983 250.5401 109.5448 16.02541871208161
SOMP2B                  
1 47445U 21006AJ  24294.13925705  .00410072  00000+0  24350-2 0  9995
2 47445  97.2952 355.8375 0003218 159.5428 200.5968 15.76877479208083
CUBEL                   
1 47448U 21006AM  24294.58934053  .00019743  00000+0  79571-3 0  9999
2 47448  97.3263 343.2194 0009982 167.3096 192.8395 15.24826334207100
IDEASSAT                
1 47458U 21006AX  24294.12154451  .00281046  00000+0  26715-2 0  9994
2 47458  97.3089 355.6193 0004515 140.9528 219.2059 15.65965247207953
ASTROCAST-0103          
1 47487U 21006CC  24294.14302352  .00052775  00000+0  16410-2 0  9999
2 47487  97.3383 346.5512 0006945 173.3550 186.7786 15.33124638207254
ASTROCAST-0102          
1 47488U 21006CD  24294.12825286  .00131264  00000+0  27643-2 0  9995
2 47488  97.3242 347.1315 0007703 144.2965 215.8800 15.44748801207366
ASTROCAST-0104          
1 47519U 21006DK  24294.08630977  .00048093  00000+0  15282-2 0  9999
2 47519  97.3320 345.7113 0007752 146.0457 214.1283 15.32449719207234
ARKTIKA-M 1             
1 47719U 21016A   24293.87048965  .00000086  00000+0  00000+0 0  9997
2 47719  63.1338 137.2764 6987627 268.5129  17.6385  2.00612000 26641
STARLINK-2342           
1 47883U 21021Z   24294.53499327  .00008781  00000+0  60744-3 0  9996
2 47883  53.0558  24.3446 0001453  93.6604 266.4551 15.06411752200151
GRUS-1B                 
1 47934U 21022C   24294.53845375  .00006432  00000+0  55637-3 0  9998
2 47934  97.6087 184.3290 0016760 186.2647 173.8368 14.97402746195361
2021-022F               
1 47937U 21022F   24294.57121105  .00024066  00000+0  11358-2 0  9997
2 47937  97.4434 188.2995 0015234  69.5377 290.7491 15.19342916197467
CANYVAL-C (PUMBAA)      
1 47938U 21022G   24294.53841242  .00106448  00000+0  29548-2 0  9990
2 47938  97.4384 193.1666 0014527  59.6793 300.5885 15.36383459197810
2021-022H               
1 47939U 21022H   24294.58461641  .00312158  00000+0  31303-2 0  9996
2 47939  97.4420 202.2533 0009275  64.2559 295.9656 15.64481711198357
WILDTRACKCUBE-SIMBA     
1 47941U 21022K   24294.56882750  .00052211  00000+0  18974-2 0  9995
2 47941  97.4421 190.5876 0016430  66.7568 293.5399 15.27968570197560
HIBER-3                 
1 47942U 21022L   24294.28798805  .00223412  00000+0  40720-2 0  9999
2 47942  97.4377 196.8078 0012077  55.8676 304.3718 15.48568643197988
2021-022M               
1 47943U 21022M   24294.60074821  .00289685  00000+0  30566-2 0  9992
2 47943  97.4409 202.2937 0008931  55.4694 304.7406 15.63253297198220
ELSA-D                  
1 47944U 21022N   24294.30475635  .00079256  00000+0  23540-2 0  9993
2 47944  97.4452 194.5954 0013330  50.9527 309.2900 15.34392077197838
UNISAT-7                
1 47945U 21022P   24294.58472669  .00029554  00000+0  13153-2 0  9993
2 47945  97.4410 188.6524 0015688  65.9093 294.3782 15.21314575197343
2021-022Q               
1 47946U 21022Q   24294.57520842  .00063093  00000+0  20548-2 0  9992
2 47946  97.4431 193.2008 0013897  52.0275 308.2219 15.31519680197766
NANOSATC-BR2            
1 47950U 21022U   24294.53846456  .00221471  00000+0  35473-2 0  9994
2 47950  97.4355 197.4859 0012223  57.5566 302.6866 15.52240792198058
CUBESX-SIRIUS-HSE       
1 47951U 21022V   24294.57330541  .00105069  00000+0  29847-2 0  9994
2 47951  97.4416 193.2422 0014686  60.5213 299.7494 15.35663866197745
CUBESX-HSE              
1 47952U 21022W   24294.57856352  .00111472  00000+0  31387-2 0  9995
2 47952  97.4415 193.3717 0014881  59.6724 300.5989 15.35911308197754
2021-022X               
1 47953U 21022X   24294.55577455  .00048538  00000+0  19330-2 0  9994
2 47953  97.4396 188.7756 0016889  71.5777 288.7295 15.24942111197206
KSU-CUBESAT             
1 47954U 21022Y   24294.23937682  .00159649  00000+0  36899-2 0  9997
2 47954  97.4422 195.1308 0013468  56.7548 303.4987 15.41799552197552
CHALLENGE ONE           
1 47956U 21022AA  24294.27438484  .00144164  00000+0  37670-2 0  9993
2 47956  97.4417 193.5856 0014817  60.2172 300.0544 15.38099667197525
2021-022AC              
1 47958U 21022AC  24294.55555363  .00052589  00000+0  20159-2 0  9995
2 47958  97.4365 189.0446 0016760  69.9934 290.3107 15.26196336196315
GRBALPHA                
1 47959U 21022AD  24294.53678782  .00103593  00000+0  29171-2 0  9990
2 47959  97.4417 193.4959 0014786  59.4587 300.8114 15.35943418196570
ORBICRAFT-ZORKY         
1 47960U 21022AE  24294.57483867  .00139342  00000+0  34438-2 0  9997
2 47960  97.4458 195.3941 0013754  58.3526 301.9059 15.39843681197367
GLOBAL-9                
1 47971U 21023G   24294.56898671  .00064937  00000+0  14937-2 0  9991
2 47971  44.9900  15.8050 0005789  26.8540 333.2647 15.41834548201722
BEESAT-8                
1 48085U 21022AP  24293.46873327  .00154023  00000+0  29813-2 0  9991
2 48085  97.4673 197.8068 0012698  54.7571 305.4865 15.47079033196980
2021-033E               
1 48252U 21033E   24294.52668791  .00233572  00000+0  18502-2 0  9994
2 48252  97.2448  11.1670 0003262  68.6017 291.5594 15.70606078194766
AII-BRAVO               
1 48270U 21034C   24294.14664236  .00020533  00000+0  18722-2 0  9998
2 48270  97.6403 352.2592 0004576 115.1464 245.0232 14.95125965188927
TYVAK-182A              
1 48271U 21034D   24294.58780066  .00022506  00000+0  19745-2 0  9995
2 48271  97.6392 354.0074 0003138 131.4311 228.7181 14.96621155189076
CSS (TIANHE)            
1 48274U 21035A   24294.31498829  .00111737  00000+0  10813-2 0  9995
2 48274  41.4683  39.6962 0004602 242.0353 118.0022 15.65263000198672
TYVAK-0130              
1 48606U 21041BF  24294.34221606  .00035471  00000+0  20071-2 0  9998
2 48606  53.0326 287.9035 0013549  91.1147 269.1397 15.12676451188309
HAIYANG-2D              
1 48621U 21043A   24294.54659152  .00000175  00000+0  23225-3 0  9998
2 48621  66.0001  10.0458 0010972 261.3596  98.6230 13.83363223172917
2021-050D               
1 48843U 21050D   24294.55057039  .00028768  00000+0  11276-2 0  9999
2 48843  97.3922  10.9731 0007047 240.9749 119.0783 15.25705135186902
BRIK-II                 
1 48876U 21058F   24294.52410928  .00065302  00000+0  14410-2 0  9998
2 48876  60.6706 350.4826 0028913  91.0008 269.4402 15.43004599184346
TYVAK-0173              
1 48892U 21059P   24294.51283432  .00004099  00000+0  57556-3 0  9999
2 48892  95.9867 152.4883 0008180 280.1447  79.8846 14.77746431178801
TUBIN                   
1 48900U 21059X   24294.55329676  .00054950  00000+0  14751-2 0  9994
2 48900  97.6610  83.5709 0005647   5.3119 354.8184 15.37742210184137
MANDRAKE 2 ABLE         
1 48907U 21059AE  24294.39224472  .00042389  00000+0  14634-2 0  9994
2 48907  97.6644  80.4027 0007678  21.5450 338.6111 15.29803810183914
MANDRAKE 2 BAKER        
1 48908U 21059AF  24294.37506071  .00046804  00000+0  15753-2 0  9990
2 48908  97.6656  81.0694 0006919  10.4979 349.6404 15.30609440183940
PACE-1                  
1 48909U 21059AG  24294.35592228  .00053950  00000+0  16873-2 0  9992
2 48909  97.6560  80.6047 0006830   3.2787 356.8498 15.32934340184004
YAM-2                   
1 48911U 21059AJ  24294.37182186  .00082468  00000+0  19132-2 0  9992
2 48911  97.6613  86.4756 0005590 352.2471   7.8688 15.42073304184285
ION SCV-003             
1 48912U 21059AK  24294.55092389  .00219933  00000+0  18124-2 0  9997
2 48912  97.6244  92.0818 0005214 306.8724  53.2058 15.69677187184887
YAM-3                   
1 48915U 21059AN  24294.38700229  .00033101  00000+0  11579-2 0  9998
2 48915  97.6615  80.4387 0007949   5.5483 354.5843 15.29428890183931
